KINEIS-2D               
1 62930U 25028C   26190.08875765  .00001158  00000+0  17638-3 0  9993
2 62930  97.9275 242.1124 0004551 122.8033 237.3615 14.75756713 75949
KINEIS-2E               
1 62931U 25028D   26190.10629757  .00000991  00000+0  14745-3 0  9995
2 62931  97.8943 241.2724 0002127  99.8295 260.3155 14.77076812 76018
KINEIS-2A               
1 62932U 25028E   26190.70920861  .00000904  00000+0  14718-3 0  9996
2 62932  98.1290 246.1291 0006066  96.8400 263.3498 14.73442066 75928
KINEIS-2B               
1 62934U 25028G   26190.07538933  .00000899  00000+0  14622-3 0  9990
2 62934  97.9657 242.5395 0005009  87.5158 272.6623 14.73441494 75884
KINEIS-4E               
1 63300U 25056A   26190.81259153  .00001010  00000+0  16755-3 0  9990
2 63300  97.9063 314.0827 0003050  94.6747 265.4809 14.72293363 70458
KINEIS-4C               
1 63301U 25056B   26190.82505005  .00001025  00000+0  16973-3 0  9990
2 63301  97.9116 314.3401 0002408 234.4774 125.6209 14.72314985 70465
KINEIS-4D               
1 63302U 25056C   26190.82855012  .00001025  00000+0  16937-3 0  9997
2 63302  97.9037 314.3211 0001159 245.7833 114.3254 14.72417368 70464
KINEIS-4A               
1 63303U 25056D   26190.79560940  .00001014  00000+0  16808-3 0  9992
2 63303  97.9132 314.2350 0001686 162.7792 197.3474 14.72324462 70457
KINEIS-4B               
1 63304U 25056E   26190.84627330  .00001006  00000+0  16670-3 0  9994
2 63304  97.9143 314.3409 0004855 211.0038 149.0884 14.72319051 70455
