{"fetched_at":"2026-07-10T07:59:08.356Z","source":"https://celestrak.org/NORAD/elements/gp.php?NAME=KINEIS&FORMAT=JSON","constellation":"kineis","records":[{"OBJECT_NAME":"KINEIS-2D","OBJECT_ID":"2025-028C","EPOCH":"2026-07-09T02:07:48.660960","CLASSIFICATION_TYPE":"U","MEAN_MOTION":14.75756713,"ECCENTRICITY":0.0004551,"INCLINATION":97.9275,"RA_OF_ASC_NODE":242.1124,"ARG_OF_PERICENTER":122.8033,"MEAN_ANOMALY":237.3615,"EPHEMERIS_TYPE":0,"NORAD_CAT_ID":62930,"ELEMENT_SET_NO":999,"REV_AT_EPOCH":7594,"BSTAR":0.00017638051,"MEAN_MOTION_DOT":0.00001158,"MEAN_MOTION_DDOT":0},{"OBJECT_NAME":"KINEIS-2E","OBJECT_ID":"2025-028D","EPOCH":"2026-07-09T02:33:04.110048","CLASSIFICATION_TYPE":"U","MEAN_MOTION":14.77076812,"ECCENTRICITY":0.00021272,"INCLINATION":97.8943,"RA_OF_ASC_NODE":241.2724,"ARG_OF_PERICENTER":99.8295,"MEAN_ANOMALY":260.3155,"EPHEMERIS_TYPE":0,"NORAD_CAT_ID":62931,"ELEMENT_SET_NO":999,"REV_AT_EPOCH":7601,"BSTAR":0.00014745382,"MEAN_MOTION_DOT":0.00000991,"MEAN_MOTION_DDOT":0},{"OBJECT_NAME":"KINEIS-2A","OBJECT_ID":"2025-028E","EPOCH":"2026-07-09T17:01:15.623904","CLASSIFICATION_TYPE":"U","MEAN_MOTION":14.73442066,"ECCENTRICITY":0.0006066,"INCLINATION":98.129,"RA_OF_ASC_NODE":246.1291,"ARG_OF_PERICENTER":96.84,"MEAN_ANOMALY":263.3498,"EPHEMERIS_TYPE":0,"NORAD_CAT_ID":62932,"ELEMENT_SET_NO":999,"REV_AT_EPOCH":7592,"BSTAR":0.00014718,"MEAN_MOTION_DOT":0.00000904,"MEAN_MOTION_DDOT":0},{"OBJECT_NAME":"KINEIS-2B","OBJECT_ID":"2025-028G","EPOCH":"2026-07-09T01:48:33.638112","CLASSIFICATION_TYPE":"U","MEAN_MOTION":14.73441494,"ECCENTRICITY":0.00050093,"INCLINATION":97.9657,"RA_OF_ASC_NODE":242.5395,"ARG_OF_PERICENTER":87.5158,"MEAN_ANOMALY":272.6623,"EPHEMERIS_TYPE":0,"NORAD_CAT_ID":62934,"ELEMENT_SET_NO":999,"REV_AT_EPOCH":7588,"BSTAR":0.00014621676,"MEAN_MOTION_DOT":0.00000899,"MEAN_MOTION_DDOT":0},{"OBJECT_NAME":"KINEIS-4E","OBJECT_ID":"2025-056A","EPOCH":"2026-07-09T19:30:07.908192","CLASSIFICATION_TYPE":"U","MEAN_MOTION":14.72293363,"ECCENTRICITY":0.000305,"INCLINATION":97.9063,"RA_OF_ASC_NODE":314.0827,"ARG_OF_PERICENTER":94.6747,"MEAN_ANOMALY":265.4809,"EPHEMERIS_TYPE":0,"NORAD_CAT_ID":63300,"ELEMENT_SET_NO":999,"REV_AT_EPOCH":7045,"BSTAR":0.00016755,"MEAN_MOTION_DOT":0.0000101,"MEAN_MOTION_DDOT":0},{"OBJECT_NAME":"KINEIS-4C","OBJECT_ID":"2025-056B","EPOCH":"2026-07-09T19:48:04.324320","CLASSIFICATION_TYPE":"U","MEAN_MOTION":14.72314985,"ECCENTRICITY":0.0002408,"INCLINATION":97.9116,"RA_OF_ASC_NODE":314.3401,"ARG_OF_PERICENTER":234.4774,"MEAN_ANOMALY":125.6209,"EPHEMERIS_TYPE":0,"NORAD_CAT_ID":63301,"ELEMENT_SET_NO":999,"REV_AT_EPOCH":7046,"BSTAR":0.00016973,"MEAN_MOTION_DOT":0.00001025,"MEAN_MOTION_DDOT":0},{"OBJECT_NAME":"KINEIS-4D","OBJECT_ID":"2025-056C","EPOCH":"2026-07-09T19:53:06.730368","CLASSIFICATION_TYPE":"U","MEAN_MOTION":14.72417368,"ECCENTRICITY":0.0001159,"INCLINATION":97.9037,"RA_OF_ASC_NODE":314.3211,"ARG_OF_PERICENTER":245.7833,"MEAN_ANOMALY":114.3254,"EPHEMERIS_TYPE":0,"NORAD_CAT_ID":63302,"ELEMENT_SET_NO":999,"REV_AT_EPOCH":7046,"BSTAR":0.00016937,"MEAN_MOTION_DOT":0.00001025,"MEAN_MOTION_DDOT":0},{"OBJECT_NAME":"KINEIS-4A","OBJECT_ID":"2025-056D","EPOCH":"2026-07-09T19:05:40.652160","CLASSIFICATION_TYPE":"U","MEAN_MOTION":14.72324462,"ECCENTRICITY":0.0001686,"INCLINATION":97.9132,"RA_OF_ASC_NODE":314.235,"ARG_OF_PERICENTER":162.7792,"MEAN_ANOMALY":197.3474,"EPHEMERIS_TYPE":0,"NORAD_CAT_ID":63303,"ELEMENT_SET_NO":999,"REV_AT_EPOCH":7045,"BSTAR":0.00016808,"MEAN_MOTION_DOT":0.00001014,"MEAN_MOTION_DDOT":0},{"OBJECT_NAME":"KINEIS-4B","OBJECT_ID":"2025-056E","EPOCH":"2026-07-09T20:18:38.013120","CLASSIFICATION_TYPE":"U","MEAN_MOTION":14.72319051,"ECCENTRICITY":0.0004855,"INCLINATION":97.9143,"RA_OF_ASC_NODE":314.3409,"ARG_OF_PERICENTER":211.0038,"MEAN_ANOMALY":149.0884,"EPHEMERIS_TYPE":0,"NORAD_CAT_ID":63304,"ELEMENT_SET_NO":999,"REV_AT_EPOCH":7045,"BSTAR":0.0001667,"MEAN_MOTION_DOT":0.00001006,"MEAN_MOTION_DDOT":0}]}
